GPS BIIR-2  (PRN 13)    
1 24876U 97035A   23091.54140844  .00000028  00000+0  00000+0 0  9994
2 24876  55.5544 144.4281 0066382  51.3691 309.2997  2.00564331188438
GPS BIIR-4  (PRN 20)    
1 26360U 00025A   23091.65581663 -.00000014  00000+0  00000+0 0  9993
2 26360  54.3023  66.9885 0043509 197.5218 333.1136  2.00550766167759
GPS BIIR-8  (PRN 16)    
1 27663U 03005A   23091.44543279  .00000010  00000+0  00000+0 0  9994
2 27663  55.3321 261.6108 0132355  44.0920 312.3222  2.00575093147780
GPS BIIR-9  (PRN 21)    
1 27704U 03010A   23092.60807005 -.00000099  00000+0  00000+0 0  9993
2 27704  55.0994  11.6154 0249575 314.5685  19.6297  2.00568191146609
GPS BIIR-11 (PRN 19)    
1 28190U 04009A   23091.43483039 -.00000047  00000+0  00000+0 0  9992
2 28190  55.8094 322.6533 0090801 130.5665  15.8691  2.00571092139426
GPS BIIR-13 (PRN 02)    
1 28474U 04045A   23092.23194829 -.00000100  00000+0  00000+0 0  9992
2 28474  55.4243  11.8807 0200559 284.5212 286.7501  2.00563208134924
GPS BIIRM-1 (PRN 17)    
1 28874U 05038A   23091.69751510 -.00000041  00000+0  00000+0 0  9998
2 28874  55.8648 320.0883 0137753 278.9900  82.4689  2.00556284128327
GPS BIIRM-2 (PRN 31)    
1 29486U 06042A   23092.27990796 -.00000025  00000+0  00000+0 0  9992
2 29486  54.6904 197.8027 0104996  28.8518 303.9747  2.00503064121034
GPS BIIRM-3 (PRN 12)    
1 29601U 06052A   23091.26161400  .00000010  00000+0  00000+0 0  9995
2 29601  55.3481 260.5689 0086975  77.2770 283.6759  2.00568452119886
GPS BIIRM-4 (PRN 15)    
1 32260U 07047A   23091.56410015  .00000040  00000+0  00000+0 0  9990
2 32260  53.4040 128.5967 0145585  67.6046 294.0087  2.00560372113297
GPS BIIRM-5 (PRN 29)    
1 32384U 07062A   23091.80001468 -.00000042  00000+0  00000+0 0  9992
2 32384  55.9923 320.8835 0022013 141.0375 160.4116  2.00577514111994
GPS BIIRM-6 (PRN 07)    
1 32711U 08012A   23090.97892085 -.00000034  00000+0  00000+0 0  9993
2 32711  54.4555 196.7233 0171908 233.8450 124.5523  2.00553244110229
GPS BIIRM-8 (PRN 05)    
1 35752U 09043A   23091.60219597  .00000004  00000+0  00000+0 0  9994
2 35752  55.3054  73.9484 0056150  63.6854  39.7312  2.00567730 99845
GPS BIIF-1  (PRN 25)    
1 36585U 10022A   23091.72965017  .00000003  00000+0  00000+0 0  9995
2 36585  54.6410 255.8714 0109744  59.1783 254.7931  2.00553902 94076
GPS BIIF-2  (PRN 01)    
1 37753U 11036A   23092.27087958 -.00000097  00000+0  00000+0 0  9993
2 37753  56.7095  17.4793 0124421  53.5886  13.0549  2.00567332 85765
GPS BIIF-3  (PRN 24)    
1 38833U 12053A   23091.66351830 -.00000029  00000+0  00000+0 0  9993
2 38833  53.5140 191.5558 0136047  50.3626 310.8363  2.00564956 75926
GPS BIIF-4  (PRN 27)    
1 39166U 13023A   23091.02431445 -.00000038  00000+0  00000+0 0  9992
2 39166  55.4837 316.3739 0113612  40.2855 320.6000  2.00565028 72355
GPS BIIF-5  (PRN 30)    
1 39533U 14008A   23091.52365927 -.00000032  00000+0  00000+0 0  9994
2 39533  53.6035 197.1000 0064318 211.5634 148.0478  2.00569673 66168
GPS BIIF-6  (PRN 06)    
1 39741U 14026A   23092.29926997 -.00000097  00000+0  00000+0 0  9991
2 39741  56.6655  17.0018 0030510 312.1934  47.5530  2.00568447 65021
GPS BIIF-7  (PRN 09)    
1 40105U 14045A   23091.39532863  .00000036  00000+0  00000+0 0  9995
2 40105  54.7635 135.3018 0021671 115.0751 245.2265  2.00566933 62558
GPS BIIF-8  (PRN 03)    
1 40294U 14068A   23092.26540159  .00000013  00000+0  00000+0 0  9998
2 40294  56.0491  76.5486 0044199  55.9356 304.4911  2.00561427 61682
GPS BIIF-9  (PRN 26)    
1 40534U 15013A   23091.89918914 -.00000002  00000+0  00000+0 0  9991
2 40534  53.5398 252.7341 0077963  24.9989 335.3455  2.00564187 58732
GPS BIIF-10 (PRN 08)    
1 40730U 15033A   23091.56089475 -.00000035  00000+0  00000+0 0  9992
2 40730  54.9751 315.0420 0083813  12.5265 347.7298  2.00563429 56479
GPS BIIF-11 (PRN 10)    
1 41019U 15062A   23091.61534683  .00000011  00000+0  00000+0 0  9990
2 41019  56.0340  76.4216 0086296 221.9868 137.3582  2.00562440 54313
GPS BIIF-12 (PRN 32)    
1 41328U 16007A   23091.70308703  .00000040  00000+0  00000+0 0  9997
2 41328  54.9728 136.0304 0069824 233.6468 125.7837  2.00557318 52329
GPS BIII-1  (PRN 04)    
1 43873U 18109A   23091.59216031  .00000036  00000+0  00000+0 0  9993
2 43873  55.1499 138.5165 0023859 193.9329 335.9383  2.00561395 31551
GPS BIII-2  (PRN 18)    
1 44506U 19056A   23092.21179064 -.00000098  00000+0  00000+0 0  9992
2 44506  55.7858  17.5846 0030442 185.0351 333.2207  2.00563178 26556
GPS BIII-3  (PRN 23)    
1 45854U 20041A   23091.09254137  .00000006  00000+0  00000+0 0  9993
2 45854  55.7543  74.8995 0030643 187.5158 185.2043  2.00566472 20513
GPS BIII-4  (PRN 14)    
1 46826U 20078A   23091.86093021  .00000003  00000+0  00000+0 0  9998
2 46826  54.3942 258.3798 0029189 188.6659 354.7798  2.00563661 17997
GPS BIII-5  (PRN 11)    
1 48859U 21054A   23092.49978544 -.00000096  00000+0  00000+0 0  9996
2 48859  55.2992  19.4327 0008665 217.1273 250.2148  2.00558138 13246
GPS BIII-6  (PRN 28)    
1 55268U 23009A   23091.36194531 -.00000031  00000+0  00000+0 0  9990
2 55268  55.0949 194.5313 0006434 100.8799 307.4060  2.00566050  1721
